{
  "type": "FeatureCollection",
  "features": [
    {
      "type": "Feature",
      "properties": {
        "norad_id": 34635,
        "name": "COSMOS 2251 DEB",
        "group": "cosmos-2251-debris",
        "lat": 37.38334242555434,
        "lon": -119.27234654910814,
        "alt_km": 643.4946857681334,
        "timestamp": "2025-12-11T08:58:27.520206+00:00",
        "meta_object_name": "COSMOS 2251 DEB",
        "meta_object_id": "1993-036XG",
        "meta_epoch": "2025-12-11T05:11:10.899168",
        "meta_mean_motion": 14.68232518,
        "meta_eccentricity": 0.002864,
        "meta_inclination": 74.0452,
        "meta_ra_of_asc_node": 73.659,
        "meta_arg_of_pericenter": 142.9554,
        "meta_mean_anomaly": 243.9152,
        "meta_ephemeris_type": 0,
        "meta_classification_type": "U",
        "meta_norad_cat_id": 34635,
        "meta_element_set_no": 999,
        "meta_rev_at_epoch": 73197,
        "meta_bstar": 0.0020342,
        "meta_mean_motion_dot": 0.00011783,
        "meta_mean_motion_ddot": 0,
        "tle_line1": "1 34635U 93036XG  25345.21609837  .00011783  00000+0  20342-2 0  9999",
        "tle_line2": "2 34635  74.0452  73.6590 0028640 142.9554 243.9152 14.68232518731978"
      },
      "geometry": {
        "type": "Point",
        "coordinates": [
          -119.27234654910814,
          37.38334242555434
        ]
      }
    },
    {
      "type": "Feature",
      "properties": {
        "norad_id": 34637,
        "name": "COSMOS 2251 DEB",
        "group": "cosmos-2251-debris",
        "lat": 10.249783657133936,
        "lon": 106.72658244870493,
        "alt_km": 728.0945966425561,
        "timestamp": "2025-12-11T08:58:27.520219+00:00",
        "meta_object_name": "COSMOS 2251 DEB",
        "meta_object_id": "1993-036XJ",
        "meta_epoch": "2025-12-10T10:12:00.254016",
        "meta_mean_motion": 14.60059536,
        "meta_eccentricity": 0.00500389,
        "meta_inclination": 74.0498,
        "meta_ra_of_asc_node": 105.5709,
        "meta_arg_of_pericenter": 176.5552,
        "meta_mean_anomaly": 248.648,
        "meta_ephemeris_type": 0,
        "meta_classification_type": "U",
        "meta_norad_cat_id": 34637,
        "meta_element_set_no": 999,
        "meta_rev_at_epoch": 88493,
        "meta_bstar": 0.0016776389,
        "meta_mean_motion_dot": 8.184e-05,
        "meta_mean_motion_ddot": 0,
        "tle_line1": "1 34637U 93036XJ  25344.42500294  .00008184  00000+0  16776-2 0  9997",
        "tle_line2": "2 34637  74.0498 105.5709 0050038 176.5552 248.6480 14.60059536884934"
      },
      "geometry": {
        "type": "Point",
        "coordinates": [
          106.72658244870493,
          10.249783657133936
        ]
      }
    },
    {
      "type": "Feature",
      "properties": {
        "norad_id": 34641,
        "name": "COSMOS 2251 DEB",
        "group": "cosmos-2251-debris",
        "lat": 39.54652087368631,
        "lon": 98.10504653715904,
        "alt_km": 706.2330700920347,
        "timestamp": "2025-12-11T08:58:27.520230+00:00",
        "meta_object_name": "COSMOS 2251 DEB",
        "meta_object_id": "1993-036XN",
        "meta_epoch": "2025-12-10T13:00:39.657024",
        "meta_mean_motion": 14.51975276,
        "meta_eccentricity": 0.0018107,
        "meta_inclination": 73.8386,
        "meta_ra_of_asc_node": 85.8366,
        "meta_arg_of_pericenter": 1.1742,
        "meta_mean_anomaly": 14.0914,
        "meta_ephemeris_type": 0,
        "meta_classification_type": "U",
        "meta_norad_cat_id": 34641,
        "meta_element_set_no": 999,
        "meta_rev_at_epoch": 88224,
        "meta_bstar": 0.0017121,
        "meta_mean_motion_dot": 6.906e-05,
        "meta_mean_motion_ddot": 0,
        "tle_line1": "1 34641U 93036XN  25344.54212566  .00006906  00000+0  17121-2 0  9992",
        "tle_line2": "2 34641  73.8386  85.8366 0018107   1.1742  14.0914 14.51975276882243"
      },
      "geometry": {
        "type": "Point",
        "coordinates": [
          98.10504653715904,
          39.54652087368631
        ]
      }
    },
    {
      "type": "Feature",
      "properties": {
        "norad_id": 34642,
        "name": "COSMOS 2251 DEB",
        "group": "cosmos-2251-debris",
        "lat": 23.47404188686881,
        "lon": -10.676788363371822,
        "alt_km": 1006.8381716648473,
        "timestamp": "2025-12-11T08:58:27.520241+00:00",
        "meta_object_name": "COSMOS 2251 DEB",
        "meta_object_id": "1993-036XP",
        "meta_epoch": "2025-12-10T11:16:39.296928",
        "meta_mean_motion": 13.98964055,
        "meta_eccentricity": 0.02073989,
        "meta_inclination": 74.0053,
        "meta_ra_of_asc_node": 343.733,
        "meta_arg_of_pericenter": 164.1427,
        "meta_mean_anomaly": 350.8698,
        "meta_ephemeris_type": 0,
        "meta_classification_type": "U",
        "meta_norad_cat_id": 34642,
        "meta_element_set_no": 999,
        "meta_rev_at_epoch": 85261,
        "meta_bstar": 0.0012238481,
        "meta_mean_motion_dot": 2.102e-05,
        "meta_mean_motion_ddot": 0,
        "tle_line1": "1 34642U 93036XP  25344.46989927  .00002102  00000+0  12238-2 0  9994",
        "tle_line2": "2 34642  74.0053 343.7330 0207398 164.1427 350.8698 13.98964055852618"
      },
      "geometry": {
        "type": "Point",
        "coordinates": [
          -10.676788363371822,
          23.47404188686881
        ]
      }
    },
    {
      "type": "Feature",
      "properties": {
        "norad_id": 34671,
        "name": "COSMOS 2251 DEB",
        "group": "cosmos-2251-debris",
        "lat": 66.20643428257532,
        "lon": 177.4452824207545,
        "alt_km": 670.8191532311057,
        "timestamp": "2025-12-11T08:58:27.520251+00:00",
        "meta_object_name": "COSMOS 2251 DEB",
        "meta_object_id": "1993-036XR",
        "meta_epoch": "2025-12-11T04:31:17.024736",
        "meta_mean_motion": 14.66888464,
        "meta_eccentricity": 0.0011537,
        "meta_inclination": 74.0269,
        "meta_ra_of_asc_node": 137.2906,
        "meta_arg_of_pericenter": 217.1966,
        "meta_mean_anomaly": 315.6642,
        "meta_ephemeris_type": 0,
        "meta_classification_type": "U",
        "meta_norad_cat_id": 34671,
        "meta_element_set_no": 999,
        "meta_rev_at_epoch": 88274,
        "meta_bstar": 0.0028592,
        "meta_mean_motion_dot": 0.00016007,
        "meta_mean_motion_ddot": 0,
        "tle_line1": "1 34671U 93036XR  25345.18839149  .00016007  00000+0  28592-2 0  9995",
        "tle_line2": "2 34671  74.0269 137.2906 0011537 217.1966 315.6642 14.66888464882749"
      },
      "geometry": {
        "type": "Point",
        "coordinates": [
          177.4452824207545,
          66.20643428257532
        ]
      }
    },
    {
      "type": "Feature",
      "properties": {
        "norad_id": 34672,
        "name": "COSMOS 2251 DEB",
        "group": "cosmos-2251-debris",
        "lat": 39.61347199734557,
        "lon": -38.19140627334979,
        "alt_km": 751.28024071053,
        "timestamp": "2025-12-11T08:58:27.520261+00:00",
        "meta_object_name": "COSMOS 2251 DEB",
        "meta_object_id": "1993-036XS",
        "meta_epoch": "2025-12-08T07:33:35.281152",
        "meta_mean_motion": 14.36398163,
        "meta_eccentricity": 0.00235672,
        "meta_inclination": 74.0335,
        "meta_ra_of_asc_node": 313.7193,
        "meta_arg_of_pericenter": 26.7043,
        "meta_mean_anomaly": 43.2667,
        "meta_ephemeris_type": 0,
        "meta_classification_type": "U",
        "meta_norad_cat_id": 34672,
        "meta_element_set_no": 999,
        "meta_rev_at_epoch": 65114,
        "meta_bstar": 0.00050497184,
        "meta_mean_motion_dot": 1.458e-05,
        "meta_mean_motion_ddot": 0,
        "tle_line1": "1 34672U 93036XS  25342.31499168  .00001458  00000+0  50497-3 0  9995",
        "tle_line2": "2 34672  74.0335 313.7193 0023567  26.7043  43.2667 14.36398163651147"
      },
      "geometry": {
        "type": "Point",
        "coordinates": [
          -38.19140627334979,
          39.61347199734557
        ]
      }
    },
    {
      "type": "Feature",
      "properties": {
        "norad_id": 34678,
        "name": "COSMOS 2251 DEB",
        "group": "cosmos-2251-debris",
        "lat": -68.59798780748551,
        "lon": -124.9157392002372,
        "alt_km": 815.0744202169499,
        "timestamp": "2025-12-11T08:58:27.520272+00:00",
        "meta_object_name": "COSMOS 2251 DEB",
        "meta_object_id": "1993-036XY",
        "meta_epoch": "2025-12-11T01:12:09.225792",
        "meta_mean_motion": 14.30064588,
        "meta_eccentricity": 0.002438,
        "meta_inclination": 74.0379,
        "meta_ra_of_asc_node": 8.7649,
        "meta_arg_of_pericenter": 58.4434,
        "meta_mean_anomaly": 330.7261,
        "meta_ephemeris_type": 0,
        "meta_classification_type": "U",
        "meta_norad_cat_id": 34678,
        "meta_element_set_no": 999,
        "meta_rev_at_epoch": 87355,
        "meta_bstar": 4.0134e-05,
        "meta_mean_motion_dot": 7.8e-07,
        "meta_mean_motion_ddot": 0,
        "tle_line1": "1 34678U 93036XY  25345.05010678  .00000078  00000+0  40134-4 0  9995",
        "tle_line2": "2 34678  74.0379   8.7649 0024380  58.4434 330.7261 14.30064588873558"
      },
      "geometry": {
        "type": "Point",
        "coordinates": [
          -124.9157392002372,
          -68.59798780748551
        ]
      }
    }
  ]
}